{"type": "FeatureCollection", "features": [ {"type": "Feature", "properties": {"norad_id": 40115, "name": "WORLDVIEW-3 (WV-3)", "group": "resource", "lat": 4.881178851615649, "lon": 55.05351976239587, "alt_km": 617.4708881584229, "timestamp": "2025-12-09T09:46:47.304139+00:00", "meta": {"OBJECT_NAME": "WORLDVIEW-3 (WV-3)", "OBJECT_ID": "2014-048A", "EPOCH": "2025-12-09T04:54:28.190880", "MEAN_MOTION": 14.85496864, "ECCENTRICITY": 0.0004485, "INCLINATION": 97.8619, "RA_OF_ASC_NODE": 55.5292, "ARG_OF_PERICENTER": 196.9375, "MEAN_ANOMALY": 163.1691, "EPHEMERIS_TYPE": 0, "CLASSIFICATION_TYPE": "U", "NORAD_CAT_ID": 40115, "ELEMENT_SET_NO": 999, "REV_AT_EPOCH": 61371, "BSTAR": 0.0002136, "MEAN_MOTION_DOT": 1.79e-05, "MEAN_MOTION_DDOT": 0}, "tle": {"line1": "1 40115U 14048A   25343.20449295  .00001790  00000+0  21360-3 0  9991", "line2": "2 40115  97.8619  55.5292 0004485 196.9375 163.1691 14.85496864613712"}}, "geometry": {"type": "Point", "coordinates": [55.05351976239587, 4.881178851615649]}}, {"type": "Feature", "properties": {"norad_id": 40118, "name": "GAOFEN-2", "group": "resource", "lat": -60.240359487442, "lon": -151.7398680795451, "alt_km": 637.4714529219536, "timestamp": "2025-12-09T09:46:47.304150+00:00", "meta": {"OBJECT_NAME": "GAOFEN-2", "OBJECT_ID": "2014-049A", "EPOCH": "2025-12-09T05:27:01.966176", "MEAN_MOTION": 14.80598694, "ECCENTRICITY": 0.0008429, "INCLINATION": 98.0386, "RA_OF_ASC_NODE": 42.3894, "ARG_OF_PERICENTER": 122.4657, "MEAN_ANOMALY": 237.7371, "EPHEMERIS_TYPE": 0, "CLASSIFICATION_TYPE": "U", "NORAD_CAT_ID": 40118, "ELEMENT_SET_NO": 999, "REV_AT_EPOCH": 61112, "BSTAR": 0.00013662, "MEAN_MOTION_DOT": 9.95e-06, "MEAN_MOTION_DDOT": 0}, "tle": {"line1": "1 40118U 14049A   25343.22710609  .00000995  00000+0  13662-3 0  9999", "line2": "2 40118  98.0386  42.3894 0008429 122.4657 237.7371 14.80598694611125"}}, "geometry": {"type": "Point", "coordinates": [-151.7398680795451, -60.240359487442]}}, {"type": "Feature", "properties": {"norad_id": 40143, "name": "YAOGAN-21", "group": "resource", "lat": 48.61151214779642, "lon": 18.64586372537979, "alt_km": 483.822843208477, "timestamp": "2025-12-09T09:46:47.304160+00:00", "meta": {"OBJECT_NAME": "YAOGAN-21", "OBJECT_ID": "2014-053A", "EPOCH": "2025-12-09T04:50:11.898240", "MEAN_MOTION": 15.23611757, "ECCENTRICITY": 0.0009918, "INCLINATION": 97.1756, "RA_OF_ASC_NODE": 26.668, "ARG_OF_PERICENTER": 52.2189, "MEAN_ANOMALY": 307.9946, "EPHEMERIS_TYPE": 0, "CLASSIFICATION_TYPE": "U", "NORAD_CAT_ID": 40143, "ELEMENT_SET_NO": 999, "REV_AT_EPOCH": 62600, "BSTAR": 0.00034791, "MEAN_MOTION_DOT": 8.276e-05, "MEAN_MOTION_DDOT": 0}, "tle": {"line1": "1 40143U 14053A   25343.20152660  .00008276  00000+0  34791-3 0  9993", "line2": "2 40143  97.1756  26.6680 0009918  52.2189 307.9946 15.23611757626001"}}, "geometry": {"type": "Point", "coordinates": [18.64586372537979, 48.61151214779642]}}, {"type": "Feature", "properties": {"norad_id": 40275, "name": "YAOGAN-22", "group": "resource", "lat": -35.91600646532177, "lon": -61.12281029779478, "alt_km": 1204.5100660644084, "timestamp": "2025-12-09T09:46:47.304171+00:00", "meta": {"OBJECT_NAME": "YAOGAN-22", "OBJECT_ID": "2014-063A", "EPOCH": "2025-12-08T23:33:20.208960", "MEAN_MOTION": 13.15522481, "ECCENTRICITY": 0.000593, "INCLINATION": 100.742, "RA_OF_ASC_NODE": 126.3479, "ARG_OF_PERICENTER": 257.3638, "MEAN_ANOMALY": 102.681, "EPHEMERIS_TYPE": 0, "CLASSIFICATION_TYPE": "U", "NORAD_CAT_ID": 40275, "ELEMENT_SET_NO": 999, "REV_AT_EPOCH": 53480, "BSTAR": 0.00011571, "MEAN_MOTION_DOT": -3e-08, "MEAN_MOTION_DDOT": 0}, "tle": {"line1": "1 40275U 14063A   25342.98148390 -.00000003  00000+0  11571-3 0  9991", "line2": "2 40275 100.7420 126.3479 0005930 257.3638 102.6810 13.15522481534807"}}, "geometry": {"type": "Point", "coordinates": [-61.12281029779478, -35.91600646532177]}}, {"type": "Feature", "properties": {"norad_id": 40298, "name": "ASNARO", "group": "resource", "lat": 32.1855105835982, "lon": -115.8948694806162, "alt_km": 502.337205171867, "timestamp": "2025-12-09T09:46:47.304182+00:00", "meta": {"OBJECT_NAME": "ASNARO", "OBJECT_ID": "2014-070A", "EPOCH": "2025-12-09T04:23:29.725152", "MEAN_MOTION": 15.19377378, "ECCENTRICITY": 0.00054, "INCLINATION": 97.3651, "RA_OF_ASC_NODE": 59.2166, "ARG_OF_PERICENTER": 131.5612, "MEAN_ANOMALY": 228.6086, "EPHEMERIS_TYPE": 0, "CLASSIFICATION_TYPE": "U", "NORAD_CAT_ID": 40298, "ELEMENT_SET_NO": 999, "REV_AT_EPOCH": 61515, "BSTAR": 0.0007024, "MEAN_MOTION_DOT": 0.00014815, "MEAN_MOTION_DDOT": 0}, "tle": {"line1": "1 40298U 14070A   25343.18298293  .00014815  00000+0  70240-3 0  9998", "line2": "2 40298  97.3651  59.2166 0005400 131.5612 228.6086 15.19377378615154"}}, "geometry": {"type": "Point", "coordinates": [-115.8948694806162, 32.1855105835982]}}, {"type": "Feature", "properties": {"norad_id": 40310, "name": "YAOGAN-24", "group": "resource", "lat": -78.61389361559235, "lon": 159.6514136720366, "alt_km": 655.3494309015196, "timestamp": "2025-12-09T09:46:47.304193+00:00", "meta": {"OBJECT_NAME": "YAOGAN-24", "OBJECT_ID": "2014-072A", "EPOCH": "2025-12-09T05:16:16.851072", "MEAN_MOTION": 14.76165926, "ECCENTRICITY": 0.0014576, "INCLINATION": 98.1225, "RA_OF_ASC_NODE": 114.2941, "ARG_OF_PERICENTER": 148.6778, "MEAN_ANOMALY": 211.5303, "EPHEMERIS_TYPE": 0, "CLASSIFICATION_TYPE": "U", "NORAD_CAT_ID": 40310, "ELEMENT_SET_NO": 999, "REV_AT_EPOCH": 59569, "BSTAR": 0.00023588, "MEAN_MOTION_DOT": 1.58e-05, "MEAN_MOTION_DDOT": 0}, "tle": {"line1": "1 40310U 14072A   25343.21963948  .00001580  00000+0  23588-3 0  9993", "line2": "2 40310  98.1225 114.2941 0014576 148.6778 211.5303 14.76165926595699"}}, "geometry": {"type": "Point", "coordinates": [159.6514136720366, -78.61389361559235]}}, {"type": "Feature", "properties": {"norad_id": 40336, "name": "CBERS 4", "group": "resource", "lat": 34.10669031209986, "lon": -132.7666346364381, "alt_km": 770.1708913151742, "timestamp": "2025-12-09T09:46:47.304204+00:00", "meta": {"OBJECT_NAME": "CBERS 4", "OBJECT_ID": "2014-079A", "EPOCH": "2025-12-09T04:05:10.951296", "MEAN_MOTION": 14.35515207, "ECCENTRICITY": 0.0001557, "INCLINATION": 98.331, "RA_OF_ASC_NODE": 41.3092, "ARG_OF_PERICENTER": 116.659, "MEAN_ANOMALY": 243.4755, "EPHEMERIS_TYPE": 0, "CLASSIFICATION_TYPE": "U", "NORAD_CAT_ID": 40336, "ELEMENT_SET_NO": 999, "REV_AT_EPOCH": 57669, "BSTAR": 3.1279e-05, "MEAN_MOTION_DOT": 4.8e-07, "MEAN_MOTION_DDOT": 0}, "tle": {"line1": "1 40336U 14079A   25343.17026564  .00000048  00000+0  31279-4 0  9992", "line2": "2 40336  98.3310  41.3092 0001557 116.6590 243.4755 14.35515207576693"}}, "geometry": {"type": "Point", "coordinates": [-132.7666346364381, 34.10669031209986]}}, {"type": "Feature", "properties": {"norad_id": 40362, "name": "YAOGAN-26", "group": "resource", "lat": -61.651833712254756, "lon": -2.511513887547299, "alt_km": 456.76695586383903, "timestamp": "2025-12-09T09:46:47.304214+00:00", "meta": {"OBJECT_NAME": "YAOGAN-26", "OBJECT_ID": "2014-088A", "EPOCH": "2025-12-08T23:07:41.539872", "MEAN_MOTION": 15.3909864, "ECCENTRICITY": 0.00067987, "INCLINATION": 97.0641, "RA_OF_ASC_NODE": 343.7726, "ARG_OF_PERICENTER": 39.7983, "MEAN_ANOMALY": 320.3761, "EPHEMERIS_TYPE": 0, "CLASSIFICATION_TYPE": "U", "NORAD_CAT_ID": 40362, "ELEMENT_SET_NO": 999, "REV_AT_EPOCH": 60836, "BSTAR": 0.00071982026, "MEAN_MOTION_DOT": 0.00027892, "MEAN_MOTION_DDOT": 0}, "tle": {"line1": "1 40362U 14088A   25342.96367523  .00027892  00000+0  71982-3 0  9990", "line2": "2 40362  97.0641 343.7726 0006798  39.7983 320.3761 15.39098640608365"}}, "geometry": {"type": "Point", "coordinates": [-2.511513887547299, -61.651833712254756]}}, {"type": "Feature", "properties": {"norad_id": 40376, "name": "SMAP", "group": "resource", "lat": 14.627303409549288, "lon": -13.958537997004447, "alt_km": 683.0659304700366, "timestamp": "2025-12-09T09:46:47.304225+00:00", "meta": {"OBJECT_NAME": "SMAP", "OBJECT_ID": "2015-003A", "EPOCH": "2025-12-09T03:08:53.559744", "MEAN_MOTION": 14.63337369, "ECCENTRICITY": 0.0001206, "INCLINATION": 98.1291, "RA_OF_ASC_NODE": 347.907, "ARG_OF_PERICENTER": 88.3513, "MEAN_ANOMALY": 271.7827, "EPHEMERIS_TYPE": 0, "CLASSIFICATION_TYPE": "U", "NORAD_CAT_ID": 40376, "ELEMENT_SET_NO": 999, "REV_AT_EPOCH": 57982, "BSTAR": 0.00017918, "MEAN_MOTION_DOT": 8.78e-06, "MEAN_MOTION_DDOT": 0}, "tle": {"line1": "1 40376U 15003A   25343.13117546  .00000878  00000+0  17918-3 0  9995", "line2": "2 40376  98.1291 347.9070 0001206  88.3513 271.7827 14.63337369579829"}}, "geometry": {"type": "Point", "coordinates": [-13.958537997004447, 14.627303409549288]}}, {"type": "Feature", "properties": {"norad_id": 40536, "name": "KOMPSAT-3A", "group": "resource", "lat": -2.507906859302878, "lon": 137.23181145444406, "alt_km": 436.49657969075724, "timestamp": "2025-12-09T09:46:47.304236+00:00", "meta": {"OBJECT_NAME": "KOMPSAT-3A", "OBJECT_ID": "2015-014A", "EPOCH": "2025-12-08T22:06:09.864864", "MEAN_MOTION": 15.43731285, "ECCENTRICITY": 0.00044771, "INCLINATION": 97.679, "RA_OF_ASC_NODE": 317.0571, "ARG_OF_PERICENTER": 134.6279, "MEAN_ANOMALY": 225.5334, "EPHEMERIS_TYPE": 0, "CLASSIFICATION_TYPE": "U", "NORAD_CAT_ID": 40536, "ELEMENT_SET_NO": 999, "REV_AT_EPOCH": 59236, "BSTAR": 0.00049293706, "MEAN_MOTION_DOT": 0.00022213, "MEAN_MOTION_DDOT": 0}, "tle": {"line1": "1 40536U 15014A   25342.92094751  .00022213  00000+0  49294-3 0  9992", "line2": "2 40536  97.6790 317.0571 0004477 134.6279 225.5334 15.43731285592364"}}, "geometry": {"type": "Point", "coordinates": [137.23181145444406, -2.507906859302878]}}]}